NORAD_CAT_ID,OBJECT_NAME,OBJECT_TYPE,EPOCH,MEAN_MOTION,ECCENTRICITY,INCLINATION,RA_OF_ASC_NODE,ARG_OF_PERICENTER,MEAN_ANOMALY,BSTAR,MEAN_MOTION_DOT,MEAN_MOTION_DDOT,TLE_LINE0,TLE_LINE1,TLE_LINE2,SEMIMAJOR_AXIS,PERIOD,APOGEE,PERIGEE,DECAYED
53169.0,STARLINK-4117,PAYLOAD,2024-08-07 00:22:33,15.08835229,0.000155,53.2168,231.6385,85.6167,274.5002,-3.5742e-05,-8.57e-06,0.0,0 STARLINK-4117,1 53169U 22083AP  24220.01565978 -.00000857  00000-0 -35742-4 0  9997,2 53169  53.2168 231.6385 0001550  85.6167 274.5002 15.08835229114686,6917.895,95.438,540.832,538.688,0.0
53169.0,STARLINK-4117,PAYLOAD,2024-08-08 06:34:54,15.08813947,0.0001656,53.2164,225.988,80.2717,279.8462,2.2039e-05,6.3e-07,0.0,0 STARLINK-4117,1 53169U 22083AP  24221.27424630  .00000063  00000-0  22039-4 0  9997,2 53169  53.2164 225.9880 0001656  80.2717 279.8462 15.08813947114239,6917.96,95.439,540.971,538.679,0.0
53169.0,STARLINK-4117,PAYLOAD,2024-08-09 04:50:14,15.08877246,0.0001969,53.2159,221.8292,74.452,285.6689,0.00019736,2.857e-05,0.0,0 STARLINK-4117,1 53169U 22083AP  24222.20155450  .00002857  00000-0  19736-3 0  9994,2 53169  53.2159 221.8292 0001969  74.4520 285.6689 15.08877246115014,6917.767,95.435,540.994,538.269,0.0
53169.0,STARLINK-4117,PAYLOAD,2024-08-09 06:25:36,15.08875592,0.0001461,53.216,221.5271,84.973,275.1429,0.00037027,5.615e-05,0.0,0 STARLINK-4117,1 53169U 22083AP  24222.26778825  .00005615  00000-0  37027-3 0  9995,2 53169  53.2160 221.5271 0001461  84.9730 275.1429 15.08875592114383,6917.772,95.435,540.647,538.626,0.0
53169.0,STARLINK-4117,PAYLOAD,2024-08-10 04:41:03,15.08840893,0.0001961,53.2157,217.3635,141.0468,219.0665,-6.7451e-05,-1.362e-05,0.0,0 STARLINK-4117,1 53169U 22083AP  24223.19517706 -.00001362  00000-0 -67451-4 0  9999,2 53169  53.2157 217.3635 0001961 141.0468 219.0665 15.08840893115166,6917.878,95.437,541.099,538.386,0.0
53169.0,STARLINK-4117,PAYLOAD,2024-08-11 02:56:27,15.08807364,0.0002214,53.2143,213.1967,107.5288,252.5946,0.00024721,3.645e-05,0.0,0 STARLINK-4117,1 53169U 22083AP  24224.12254336  .00003645  00000-0  24721-3 0  9996,2 53169  53.2143 213.1967 0002214 107.5288 252.5946 15.08807364115308,6917.98,95.44,541.377,538.314,0.0
53169.0,STARLINK-4117,PAYLOAD,2024-08-11 06:07:12,15.08858671,0.0001399,53.2151,212.6018,100.2405,259.8745,-0.00026277,-4.47e-05,0.0,0 STARLINK-4117,1 53169U 22083AP  24224.25500831 -.00004470  00000-0 -26277-3 0  9991,2 53169  53.2151 212.6018 0001399 100.2405 259.8745 15.08858671115328,6917.823,95.436,540.656,538.721,0.0
53169.0,STARLINK-4117,PAYLOAD,2024-08-12 04:22:36,15.08832875,0.0001676,53.2164,208.4467,107.8863,252.2312,0.00011075,1.475e-05,0.0,0 STARLINK-4117,1 53169U 22083AP  24225.18237237  .00001475  00000-0  11075-3 0  9991,2 53169  53.2164 208.4467 0001676 107.8863 252.2312 15.08832875115462,6917.902,95.438,540.927,538.608,0.0
53169.0,STARLINK-4117,PAYLOAD,2024-08-12 07:33:22,15.08839273,0.0001703,53.2176,207.8526,109.9511,250.1664,0.00017461,2.492e-05,0.0,0 STARLINK-4117,1 53169U 22083AP  24225.31484739  .00002492  00000-0  17461-3 0  9992,2 53169  53.2176 207.8526 0001703 109.9511 250.1664 15.08839273115486,6917.883,95.438,540.926,538.569,0.0
53169.0,STARLINK-4117,PAYLOAD,2024-08-12 15:30:16,15.08862093,0.0001563,53.2161,206.3634,108.7734,251.3428,0.00033245,5.01e-05,0.0,0 STARLINK-4117,1 53169U 22083AP  24225.64602590  .00005010  00000-0  33245-3 0  9992,2 53169  53.2161 206.3634 0001563 108.7734 251.3428 15.08862093115535,6917.813,95.436,540.759,538.597,0.0
53169.0,STARLINK-4117,PAYLOAD,2024-08-13 05:48:49,15.08802875,0.0001273,53.2166,203.6856,97.5823,262.5313,-0.00026847,-4.554e-05,0.0,0 STARLINK-4117,1 53169U 22083AP  24226.24223802 -.00004554  00000-0 -26847-3 0  9998,2 53169  53.2166 203.6856 0001273  97.5823 262.5313 15.08802875115627,6917.994,95.44,540.74,538.978,0.0
53169.0,STARLINK-4117,PAYLOAD,2024-08-13 21:42:41,15.08811459,0.0001123,53.2162,200.7102,86.2803,273.8317,-0.0002971,-5.009e-05,0.0,0 STARLINK-4117,1 53169U 22083AP  24226.90464757 -.00005009  00000-0 -29710-3 0  9995,2 53169  53.2162 200.7102 0001123  86.2803 273.8317 15.08811459115720,6917.968,95.439,540.61,539.056,0.0
53169.0,STARLINK-4117,PAYLOAD,2024-08-14 04:04:13,15.08816457,0.0001183,53.2161,199.5219,91.9549,268.1578,-0.0002159,-3.72e-05,0.0,0 STARLINK-4117,1 53169U 22083AP  24227.16960551 -.00003720  00000-0 -21590-3 0  9993,2 53169  53.2161 199.5219 0001183  91.9549 268.1578 15.08816457115762,6917.952,95.439,540.636,538.999,0.0
53169.0,STARLINK-4117,PAYLOAD,2024-08-14 08:50:23,15.08819372,0.0001216,53.2166,198.6301,93.945,266.1681,-0.00018687,-3.259e-05,0.0,0 STARLINK-4117,1 53169U 22083AP  24227.36832537 -.00003259  00000-0 -18687-3 0  9997,2 53169  53.2166 198.6301 0001216  93.9450 266.1681 15.08819372115154,6917.943,95.439,540.65,538.967,0.0
53169.0,STARLINK-4117,PAYLOAD,2024-08-14 15:11:54,15.0882442,8.12e-05,53.2164,197.4428,120.9107,239.1965,-0.00010799,-2.005e-05,0.0,0 STARLINK-4117,1 53169U 22083AP  24227.63327402 -.00002005  00000-0 -10799-3 0  9991,2 53169  53.2164 197.4428 0000812 120.9107 239.1965 15.08824420115830,6917.928,95.439,540.355,539.231,0.0
53169.0,STARLINK-4117,PAYLOAD,2024-08-15 03:54:59,15.08821745,0.0001114,53.2162,195.0612,99.0628,261.049,0.00042918,6.546e-05,0.0,0 STARLINK-4117,1 53169U 22083AP  24228.16319010  .00006546  00000-0  42918-3 0  9996,2 53169  53.2162 195.0612 0001114  99.0628 261.0490 15.08821745115910,6917.936,95.439,540.572,539.031,0.0
53169.0,STARLINK-4117,PAYLOAD,2024-08-15 05:30:22,15.0882383,0.0001141,53.2165,194.7635,94.0399,266.0723,0.00045694,6.989e-05,0.0,0 STARLINK-4117,1 53169U 22083AP  24228.22942996  .00006989  00000-0  45694-3 0  9993,2 53169  53.2165 194.7635 0001141  94.0399 266.0723 15.08823830115285,6917.93,95.439,540.584,539.005,0.0
53169.0,STARLINK-4117,PAYLOAD,2024-08-15 15:02:41,15.08830897,0.0001074,53.2161,192.9794,97.3105,262.8009,0.00046738,7.156e-05,0.0,0 STARLINK-4117,1 53169U 22083AP  24228.62687056  .00007156  00000-0  46738-3 0  9997,2 53169  53.2161 192.9794 0001074  97.3105 262.8009 15.08830897115342,6917.908,95.438,540.516,539.03,0.0
53169.0,STARLINK-4117,PAYLOAD,2024-08-16 03:45:46,15.08854284,0.0001123,53.2147,190.6,101.3957,258.7161,0.00055058,8.489e-05,0.0,0 STARLINK-4117,1 53169U 22083AP  24229.15678939  .00008489  00000-0  55058-3 0  9991,2 53169  53.2147 190.6000 0001123 101.3957 258.7161 15.08854284116066,6917.837,95.437,540.479,538.925,0.0
53169.0,STARLINK-4117,PAYLOAD,2024-08-16 05:21:09,15.08858389,0.0001157,53.2147,190.3007,106.9232,253.1887,0.0005704,8.806e-05,0.0,0 STARLINK-4117,1 53169U 22083AP  24229.22302690  .00008806  00000-0  57040-3 0  9993,2 53169  53.2147 190.3007 0001157 106.9232 253.1887 15.08858389115438,6917.824,95.436,540.49,538.889,0.0
53169.0,STARLINK-4117,PAYLOAD,2024-08-16 19:39:37,15.088555,8.55e-05,53.2164,187.6249,115.5371,244.571,0.0002089,3.04e-05,0.0,0 STARLINK-4117,1 53169U 22083AP  24229.81918248  .00003040  00000-0  20890-3 0  9998,2 53169  53.2164 187.6249 0000855 115.5371 244.5710 15.08855500116160,6917.833,95.437,540.289,539.107,0.0
53169.0,STARLINK-4117,PAYLOAD,2024-08-17 03:36:32,15.08856006,0.000126,53.2146,186.1397,114.9823,245.13,2.7608e-06,-2.44e-06,0.0,0 STARLINK-4117,1 53169U 22083AP  24230.15037922 -.00000244  00000-0  27608-5 0  9998,2 53169  53.2146 186.1397 0001260 114.9823 245.1300 15.08856006115572,6917.831,95.437,540.568,538.825,0.0
53169.0,STARLINK-4117,PAYLOAD,2024-08-17 21:05:47,15.08845361,0.0001212,53.2157,182.8723,81.8418,278.2712,-4.8505e-05,-1.06e-05,0.0,0 STARLINK-4117,1 53169U 22083AP  24230.87902676 -.00001060  00000-0 -48505-4 0  9990,2 53169  53.2157 182.8723 0001212  81.8418 278.2712 15.08845361116329,6917.864,95.437,540.567,538.891,0.0
53169.0,STARLINK-4117,PAYLOAD,2024-08-18 03:27:20,15.08848074,0.000129,53.216,181.681,82.5446,277.5693,-0.0001274,-2.315e-05,0.0,0 STARLINK-4117,1 53169U 22083AP  24231.14398537 -.00002315  00000-0 -12740-3 0  9991,2 53169  53.2160 181.6810 0001290  82.5446 277.5693 15.08848074115729,6917.856,95.437,540.613,538.828,0.0
53169.0,STARLINK-4117,PAYLOAD,2024-08-19 03:18:06,15.08843618,0.0001525,53.2171,177.2202,101.5786,258.5378,1.7816e-05,-4e-08,0.0,0 STARLINK-4117,1 53169U 22083AP  24232.13758038 -.00000004  00000-0  17816-4 0  9999,2 53169  53.2171 177.2202 0001525 101.5786 258.5378 15.08843618116513,6917.869,95.437,540.789,538.679,0.0
53169.0,STARLINK-4117,PAYLOAD,2024-08-19 12:50:26,15.08839873,0.0001443,53.2168,175.4341,91.4123,268.7034,-2.7279e-05,-7.22e-06,0.0,0 STARLINK-4117,1 53169U 22083AP  24232.53502421 -.00000722  00000-0 -27279-4 0  9998,2 53169  53.2168 175.4341 0001443  91.4123 268.7034 15.08839873115939,6917.881,95.438,540.744,538.748,0.0
53169.0,STARLINK-4117,PAYLOAD,2024-08-19 19:11:59,15.0883225,0.0001574,53.2178,174.2466,105.8023,254.3143,3.4743e-05,2.65e-06,0.0,0 STARLINK-4117,1 53169U 22083AP  24232.79998848  .00000265  00000-0  34743-4 0  9992,2 53169  53.2178 174.2466 0001574 105.8023 254.3143 15.08832250116619,6917.904,95.438,540.858,538.68,0.0
53169.0,STARLINK-4117,PAYLOAD,2024-08-20 06:19:40,15.08839226,0.0001389,53.2174,172.1659,97.19,262.925,9.4171e-05,1.211e-05,0.0,0 STARLINK-4117,1 53169U 22083AP  24233.26366459  .00001211  00000-0  94171-4 0  9995,2 53169  53.2174 172.1659 0001389  97.1900 262.9250 15.08839226116688,6917.883,95.438,540.709,538.787,0.0
53169.0,STARLINK-4117,PAYLOAD,2024-08-21 01:24:18,15.08842907,0.0001187,53.2164,168.5952,92.8342,267.2786,8.3148e-06,-1.56e-06,0.0,0 STARLINK-4117,1 53169U 22083AP  24234.05854588 -.00000156  00000-0  83148-5 0  9999,2 53169  53.2164 168.5952 0001187  92.8342 267.2786 15.08842907116165,6917.872,95.437,540.558,538.915,0.0
